{"type": "FeatureCollection", "features": [ {"type": "Feature", "properties": {"norad_id": 66879, "name": "STARLINK-35749", "group": "last-30-days", "lat": 46.7471395107693, "lon": 68.0469180458842, "alt_km": 365.583742680019, "timestamp": "2025-12-24T11:32:58.719963+00:00", "meta": {"OBJECT_NAME": "STARLINK-35749", "OBJECT_ID": "2025-283B", "EPOCH": "2025-12-24T04:00:01.998720", "MEAN_MOTION": 15.66564272, "ECCENTRICITY": 0.000146, "INCLINATION": 53.1594, "RA_OF_ASC_NODE": 16.7519, "ARG_OF_PERICENTER": 80.0731, "MEAN_ANOMALY": 11.3759, "EPHEMERIS_TYPE": 0, "CLASSIFICATION_TYPE": "U", "NORAD_CAT_ID": 66879, "ELEMENT_SET_NO": 999, "REV_AT_EPOCH": 426, "BSTAR": -0.021485, "MEAN_MOTION_DOT": -0.02013653, "MEAN_MOTION_DDOT": 0}, "tle": {"line1": "1 66879U 25283B   25358.16668980 -.02013653  00000+0 -21485-1 0  9995", "line2": "2 66879  53.1594  16.7519 0001460  80.0731  11.3759 15.66564272  4266"}}, "geometry": {"type": "Point", "coordinates": [68.0469180458842, 46.7471395107693]}}, {"type": "Feature", "properties": {"norad_id": 66880, "name": "STARLINK-35844", "group": "last-30-days", "lat": 45.7941821493978, "lon": 65.64135011972172, "alt_km": 365.8237029176489, "timestamp": "2025-12-24T11:32:58.719973+00:00", "meta": {"OBJECT_NAME": "STARLINK-35844", "OBJECT_ID": "2025-283C", "EPOCH": "2025-12-24T04:00:01.998720", "MEAN_MOTION": 15.66562295, "ECCENTRICITY": 0.0001325, "INCLINATION": 53.1596, "RA_OF_ASC_NODE": 16.7562, "ARG_OF_PERICENTER": 79.7324, "MEAN_ANOMALY": 9.8017, "EPHEMERIS_TYPE": 0, "CLASSIFICATION_TYPE": "U", "NORAD_CAT_ID": 66880, "ELEMENT_SET_NO": 999, "REV_AT_EPOCH": 426, "BSTAR": -0.021459, "MEAN_MOTION_DOT": -0.0201124, "MEAN_MOTION_DDOT": 0}, "tle": {"line1": "1 66880U 25283C   25358.16668980 -.02011240  00000+0 -21459-1 0  9998", "line2": "2 66880  53.1596  16.7562 0001325  79.7324   9.8017 15.66562295  4263"}}, "geometry": {"type": "Point", "coordinates": [65.64135011972172, 45.7941821493978]}}, {"type": "Feature", "properties": {"norad_id": 66881, "name": "STARLINK-35860", "group": "last-30-days", "lat": 47.648860966529334, "lon": 70.53921923128438, "alt_km": 365.45840977812804, "timestamp": "2025-12-24T11:32:58.719983+00:00", "meta": {"OBJECT_NAME": "STARLINK-35860", "OBJECT_ID": "2025-283D", "EPOCH": "2025-12-24T04:00:01.998720", "MEAN_MOTION": 15.66560849, "ECCENTRICITY": 0.0001439, "INCLINATION": 53.1596, "RA_OF_ASC_NODE": 16.7479, "ARG_OF_PERICENTER": 79.7917, "MEAN_ANOMALY": 13.5769, "EPHEMERIS_TYPE": 0, "CLASSIFICATION_TYPE": "U", "NORAD_CAT_ID": 66881, "ELEMENT_SET_NO": 999, "REV_AT_EPOCH": 426, "BSTAR": -0.021447, "MEAN_MOTION_DOT": -0.02010251, "MEAN_MOTION_DDOT": 0}, "tle": {"line1": "1 66881U 25283D   25358.16668980 -.02010251  00000+0 -21447-1 0  9997", "line2": "2 66881  53.1596  16.7479 0001439  79.7917  13.5769 15.66560849  4264"}}, "geometry": {"type": "Point", "coordinates": [70.53921923128438, 47.648860966529334]}}, {"type": "Feature", "properties": {"norad_id": 66882, "name": "STARLINK-35912", "group": "last-30-days", "lat": 48.493778031206425, "lon": 73.11515986062733, "alt_km": 365.27012132058735, "timestamp": "2025-12-24T11:32:58.719997+00:00", "meta": {"OBJECT_NAME": "STARLINK-35912", "OBJECT_ID": "2025-283E", "EPOCH": "2025-12-24T04:00:01.998720", "MEAN_MOTION": 15.66552156, "ECCENTRICITY": 0.0001504, "INCLINATION": 53.1595, "RA_OF_ASC_NODE": 16.7442, "ARG_OF_PERICENTER": 74.6299, "MEAN_ANOMALY": 20.6584, "EPHEMERIS_TYPE": 0, "CLASSIFICATION_TYPE": "U", "NORAD_CAT_ID": 66882, "ELEMENT_SET_NO": 999, "REV_AT_EPOCH": 426, "BSTAR": -0.021319, "MEAN_MOTION_DOT": -0.01999158, "MEAN_MOTION_DDOT": 0}, "tle": {"line1": "1 66882U 25283E   25358.16668980 -.01999158  00000+0 -21319-1 0  9997", "line2": "2 66882  53.1595  16.7442 0001504  74.6299  20.6584 15.66552156  4260"}}, "geometry": {"type": "Point", "coordinates": [73.11515986062733, 48.493778031206425]}}, {"type": "Feature", "properties": {"norad_id": 66883, "name": "STARLINK-35947", "group": "last-30-days", "lat": 49.282058109049785, "lon": 75.78554309521598, "alt_km": 365.2619068327158, "timestamp": "2025-12-24T11:32:58.720010+00:00", "meta": {"OBJECT_NAME": "STARLINK-35947", "OBJECT_ID": "2025-283F", "EPOCH": "2025-12-24T04:00:01.998720", "MEAN_MOTION": 15.66565883, "ECCENTRICITY": 0.0001373, "INCLINATION": 53.1595, "RA_OF_ASC_NODE": 16.7406, "ARG_OF_PERICENTER": 77.0508, "MEAN_ANOMALY": 20.1561, "EPHEMERIS_TYPE": 0, "CLASSIFICATION_TYPE": "U", "NORAD_CAT_ID": 66883, "ELEMENT_SET_NO": 999, "REV_AT_EPOCH": 431, "BSTAR": -0.021596, "MEAN_MOTION_DOT": -0.02022869, "MEAN_MOTION_DDOT": 0}, "tle": {"line1": "1 66883U 25283F   25358.16668980 -.02022869  00000+0 -21596-1 0  9992", "line2": "2 66883  53.1595  16.7406 0001373  77.0508  20.1561 15.66565883  4312"}}, "geometry": {"type": "Point", "coordinates": [75.78554309521598, 49.282058109049785]}}, {"type": "Feature", "properties": {"norad_id": 66884, "name": "STARLINK-36057", "group": "last-30-days", "lat": 50.65836576555542, "lon": 81.34665279669332, "alt_km": 365.0569193849369, "timestamp": "2025-12-24T11:32:58.720020+00:00", "meta": {"OBJECT_NAME": "STARLINK-36057", "OBJECT_ID": "2025-283G", "EPOCH": "2025-12-24T04:00:01.998720", "MEAN_MOTION": 15.66558188, "ECCENTRICITY": 0.0001378, "INCLINATION": 53.1593, "RA_OF_ASC_NODE": 16.732, "ARG_OF_PERICENTER": 81.4365, "MEAN_ANOMALY": 19.6037, "EPHEMERIS_TYPE": 0, "CLASSIFICATION_TYPE": "U", "NORAD_CAT_ID": 66884, "ELEMENT_SET_NO": 999, "REV_AT_EPOCH": 426, "BSTAR": -0.021444, "MEAN_MOTION_DOT": -0.0200977, "MEAN_MOTION_DDOT": 0}, "tle": {"line1": "1 66884U 25283G   25358.16668980 -.02009770  00000+0 -21444-1 0  9991", "line2": "2 66884  53.1593  16.7320 0001378  81.4365  19.6037 15.66558188  4266"}}, "geometry": {"type": "Point", "coordinates": [81.34665279669332, 50.65836576555542]}}, {"type": "Feature", "properties": {"norad_id": 66885, "name": "STARLINK-35954", "group": "last-30-days", "lat": 50.002761087725446, "lon": 78.52255262767628, "alt_km": 365.181733233404, "timestamp": "2025-12-24T11:32:58.720030+00:00", "meta": {"OBJECT_NAME": "STARLINK-35954", "OBJECT_ID": "2025-283H", "EPOCH": "2025-12-24T04:00:01.998720", "MEAN_MOTION": 15.6656036, "ECCENTRICITY": 0.0001315, "INCLINATION": 53.1595, "RA_OF_ASC_NODE": 16.7362, "ARG_OF_PERICENTER": 77.2945, "MEAN_ANOMALY": 21.8248, "EPHEMERIS_TYPE": 0, "CLASSIFICATION_TYPE": "U", "NORAD_CAT_ID": 66885, "ELEMENT_SET_NO": 999, "REV_AT_EPOCH": 426, "BSTAR": -0.021434, "MEAN_MOTION_DOT": -0.02009089, "MEAN_MOTION_DDOT": 0}, "tle": {"line1": "1 66885U 25283H   25358.16668980 -.02009089  00000+0 -21434-1 0  9994", "line2": "2 66885  53.1595  16.7362 0001315  77.2945  21.8248 15.66560360  4267"}}, "geometry": {"type": "Point", "coordinates": [78.52255262767628, 50.002761087725446]}}, {"type": "Feature", "properties": {"norad_id": 66886, "name": "STARLINK-35900", "group": "last-30-days", "lat": 51.244190251690895, "lon": 84.24674605283053, "alt_km": 364.940189331749, "timestamp": "2025-12-24T11:32:58.720040+00:00", "meta": {"OBJECT_NAME": "STARLINK-35900", "OBJECT_ID": "2025-283J", "EPOCH": "2025-12-24T04:00:01.998720", "MEAN_MOTION": 15.66561728, "ECCENTRICITY": 0.0001429, "INCLINATION": 53.1596, "RA_OF_ASC_NODE": 16.7279, "ARG_OF_PERICENTER": 82.1625, "MEAN_ANOMALY": 20.7939, "EPHEMERIS_TYPE": 0, "CLASSIFICATION_TYPE": "U", "NORAD_CAT_ID": 66886, "ELEMENT_SET_NO": 999, "REV_AT_EPOCH": 426, "BSTAR": -0.021512, "MEAN_MOTION_DOT": -0.02015649, "MEAN_MOTION_DDOT": 0}, "tle": {"line1": "1 66886U 25283J   25358.16668980 -.02015649  00000+0 -21512-1 0  9991", "line2": "2 66886  53.1596  16.7279 0001429  82.1625  20.7939 15.66561728  4266"}}, "geometry": {"type": "Point", "coordinates": [84.24674605283053, 51.244190251690895]}}, {"type": "Feature", "properties": {"norad_id": 66887, "name": "STARLINK-35925", "group": "last-30-days", "lat": 51.756699152586656, "lon": 87.22294058435082, "alt_km": 364.89438421796785, "timestamp": "2025-12-24T11:32:58.720050+00:00", "meta": {"OBJECT_NAME": "STARLINK-35925", "OBJECT_ID": "2025-283K", "EPOCH": "2025-12-24T04:00:01.998720", "MEAN_MOTION": 15.66567908, "ECCENTRICITY": 0.0001392, "INCLINATION": 53.1593, "RA_OF_ASC_NODE": 16.7239, "ARG_OF_PERICENTER": 79.2177, "MEAN_ANOMALY": 25.6564, "EPHEMERIS_TYPE": 0, "CLASSIFICATION_TYPE": "U", "NORAD_CAT_ID": 66887, "ELEMENT_SET_NO": 999, "REV_AT_EPOCH": 426, "BSTAR": -0.021632, "MEAN_MOTION_DOT": -0.02025936, "MEAN_MOTION_DDOT": 0}, "tle": {"line1": "1 66887U 25283K   25358.16668980 -.02025936  00000+0 -21632-1 0  9995", "line2": "2 66887  53.1593  16.7239 0001392  79.2177  25.6564 15.66567908  4262"}}, "geometry": {"type": "Point", "coordinates": [87.22294058435082, 51.756699152586656]}}, {"type": "Feature", "properties": {"norad_id": 66888, "name": "STARLINK-35919", "group": "last-30-days", "lat": 52.1906750710727, "lon": 90.24802554388151, "alt_km": 364.8144654492953, "timestamp": "2025-12-24T11:32:58.720060+00:00", "meta": {"OBJECT_NAME": "STARLINK-35919", "OBJECT_ID": "2025-283L", "EPOCH": "2025-12-24T04:00:01.998720", "MEAN_MOTION": 15.6655619, "ECCENTRICITY": 0.000141, "INCLINATION": 53.1593, "RA_OF_ASC_NODE": 16.7197, "ARG_OF_PERICENTER": 80.4134, "MEAN_ANOMALY": 26.3782, "EPHEMERIS_TYPE": 0, "CLASSIFICATION_TYPE": "U", "NORAD_CAT_ID": 66888, "ELEMENT_SET_NO": 999, "REV_AT_EPOCH": 426, "BSTAR": -0.021418, "MEAN_MOTION_DOT": -0.02007541, "MEAN_MOTION_DDOT": 0}, "tle": {"line1": "1 66888U 25283L   25358.16668980 -.02007541  00000+0 -21418-1 0  9990", "line2": "2 66888  53.1593  16.7197 0001410  80.4134  26.3782 15.66556190  4265"}}, "geometry": {"type": "Point", "coordinates": [90.24802554388151, 52.1906750710727]}}]}